start=new Date('2023-03-27T00:00:00.000Z').valueOf();
sats=[{"TLE_LINE2":"2 49726  53.2162 321.9666 0001003  97.0258 263.0848 15.08832661 72535","ELEMENT_SET_NO":"999","MEAN_MOTION":"15.08832661","LAUNCH_DATE":"2021-12-02","COUNTRY_CODE":"US","MEAN_MOTION_DDOT":"0.0000000000000","BSTAR":"0.00012827000000","RA_OF_ASC_NODE":"321.9666","ECCENTRICITY":"0.00010030","SEMIMAJOR_AXIS":"6917.903","REF_FRAME":"TEME","APOAPSIS":"540.462","ARG_OF_PERICENTER":"97.0258","OBJECT_TYPE":"PAYLOAD","OBJECT_NAME":"STARLINK-3237","TLE_LINE1":"1 49726U 21115C   23085.90680845  .00001754  00000-0  12827-3 0  9996","CLASSIFICATION_TYPE":"U","TIME_SYSTEM":"UTC","INCLINATION":"53.2162","PERIAPSIS":"539.074","FILE":"3871964","NORAD_CAT_ID":"49726","OBJECT_ID":"2021-115C","MEAN_MOTION_DOT":"0.00001754","CENTER_NAME":"EARTH","EPHEMERIS_TYPE":"0","PERIOD":"95.438","MEAN_ELEMENT_THEORY":"SGP4","REV_AT_EPOCH":"7253","GP_ID":"228917396","RCS_SIZE":"LARGE","SITE":"AFETR","MEAN_ANOMALY":"263.0848","DECAY_DATE":null,"EPOCH":"2023-03-26T21:45:48.250080"},{"OBJECT_NAME":"STARLINK-3242","TLE_LINE1":"1 49727U 21115D   23085.91049460  .00009160  00000-0  59310-3 0  9997","ARG_OF_PERICENTER":"66.2788","OBJECT_TYPE":"PAYLOAD","TIME_SYSTEM":"UTC","CLASSIFICATION_TYPE":"U","FILE":"3871964","PERIAPSIS":"538.962","INCLINATION":"53.2147","NORAD_CAT_ID":"49727","MEAN_MOTION_DDOT":"0.0000000000000","COUNTRY_CODE":"US","LAUNCH_DATE":"2021-12-02","ELEMENT_SET_NO":"999","TLE_LINE2":"2 49727  53.2147 321.9517 0001207  66.2788 293.8330 15.08823096 72535","MEAN_MOTION":"15.08823096","ECCENTRICITY":"0.00012070","RA_OF_ASC_NODE":"321.9517","BSTAR":"0.00059310000000","APOAPSIS":"540.632","REF_FRAME":"TEME","SEMIMAJOR_AXIS":"6917.932","REV_AT_EPOCH":"7253","GP_ID":"228918147","RCS_SIZE":"LARGE","EPOCH":"2023-03-26T21:51:06.733440","DECAY_DATE":null,"MEAN_ANOMALY":"293.8330","SITE":"AFETR","OBJECT_ID":"2021-115D","MEAN_MOTION_DOT":"0.00009160","EPHEMERIS_TYPE":"0","CENTER_NAME":"EARTH","MEAN_ELEMENT_THEORY":"SGP4","PERIOD":"95.439"},{"RCS_SIZE":"LARGE","SITE":"AFETR","MEAN_ANOMALY":"249.8548","DECAY_DATE":null,"EPOCH":"2023-03-26T21:56:25.974528","REV_AT_EPOCH":"7253","GP_ID":"228916395","CENTER_NAME":"EARTH","EPHEMERIS_TYPE":"0","PERIOD":"95.439","MEAN_ELEMENT_THEORY":"SGP4","OBJECT_ID":"2021-115E","MEAN_MOTION_DOT":"0.00051917","INCLINATION":"53.2157","FILE":"3871964","PERIAPSIS":"538.838","NORAD_CAT_ID":"49728","ARG_OF_PERICENTER":"110.2593","OBJECT_TYPE":"PAYLOAD","OBJECT_NAME":"STARLINK-3240","TLE_LINE1":"1 49728U 21115E   23085.91418952  .00051917  00000-0  32578-2 0  9997","CLASSIFICATION_TYPE":"U","TIME_SYSTEM":"UTC","BSTAR":"0.00325780000000","RA_OF_ASC_NODE":"321.9333","ECCENTRICITY":"0.00013900","SEMIMAJOR_AXIS":"6917.934","REF_FRAME":"TEME","APOAPSIS":"540.761","TLE_LINE2":"2 49728  53.2157 321.9333 0001390 110.2593 249.8548 15.08822315 72535","ELEMENT_SET_NO":"999","MEAN_MOTION":"15.08822315","LAUNCH_DATE":"2021-12-02","MEAN_MOTION_DDOT":"0.0000000000000","COUNTRY_CODE":"US"},{"EPHEMERIS_TYPE":"0","CENTER_NAME":"EARTH","MEAN_ELEMENT_THEORY":"SGP4","PERIOD":"95.438","OBJECT_ID":"2021-115F","MEAN_MOTION_DOT":"0.00009742","RCS_SIZE":"LARGE","EPOCH":"2023-03-26T22:03:04.536000","DECAY_DATE":null,"SITE":"AFETR","MEAN_ANOMALY":"275.7060","REV_AT_EPOCH":"7253","GP_ID":"228916645","ECCENTRICITY":"0.00011910","RA_OF_ASC_NODE":"321.9241","BSTAR":"0.00062949000000","APOAPSIS":"540.595","SEMIMAJOR_AXIS":"6917.906","REF_FRAME":"TEME","MEAN_MOTION_DDOT":"0.0000000000000","COUNTRY_CODE":"US","LAUNCH_DATE":"2021-12-02","TLE_LINE2":"2 49729  53.2167 321.9241 0001191  84.4068 275.7060 15.08831565 72537","ELEMENT_SET_NO":"999","MEAN_MOTION":"15.08831565","PERIAPSIS":"538.947","FILE":"3871964","INCLINATION":"53.2167","NORAD_CAT_ID":"49729","TLE_LINE1":"1 49729U 21115F   23085.91880250  .00009742  00000-0  62949-3 0  9997","OBJECT_NAME":"STARLINK-3251","OBJECT_TYPE":"PAYLOAD","ARG_OF_PERICENTER":"84.4068","TIME_SYSTEM":"UTC","CLASSIFICATION_TYPE":"U"},{"MEAN_MOTION_DOT":"0.00014599","OBJECT_ID":"2021-115G","PERIOD":"95.440","MEAN_ELEMENT_THEORY":"SGP4","EPHEMERIS_TYPE":"0","CENTER_NAME":"EARTH","GP_ID":"228917897","REV_AT_EPOCH":"7253","SITE":"AFETR","MEAN_ANOMALY":"287.1928","EPOCH":"2023-03-26T22:13:40.866816","DECAY_DATE":null,"RCS_SIZE":"LARGE","MEAN_MOTION":"15.08801884","TLE_LINE2":"2 49730  53.2154 321.8918 0001192  72.9194 287.1928 15.08801884 72539","ELEMENT_SET_NO":"999","MEAN_MOTION_DDOT":"0.0000000000000","COUNTRY_CODE":"US","LAUNCH_DATE":"2021-12-02","REF_FRAME":"TEME","SEMIMAJOR_AXIS":"6917.997","APOAPSIS":"540.687","BSTAR":"0.00093444000000","ECCENTRICITY":"0.00011920","RA_OF_ASC_NODE":"321.8918","TIME_SYSTEM":"UTC","CLASSIFICATION_TYPE":"U","ARG_OF_PERICENTER":"72.9194","OBJECT_TYPE":"PAYLOAD","TLE_LINE1":"1 49730U 21115G   23085.92616744  .00014599  00000-0  93444-3 0  9995","OBJECT_NAME":"STARLINK-3249","NORAD_CAT_ID":"49730","INCLINATION":"53.2154","FILE":"3871964","PERIAPSIS":"539.037"},{"APOAPSIS":"540.763","SEMIMAJOR_AXIS":"6917.981","REF_FRAME":"TEME","ECCENTRICITY":"0.00013260","RA_OF_ASC_NODE":"321.9020","BSTAR":"0.00072684000000","COUNTRY_CODE":"US","MEAN_MOTION_DDOT":"0.0000000000000","LAUNCH_DATE":"2021-12-02","ELEMENT_SET_NO":"999","TLE_LINE2":"2 49731  53.2153 321.9020 0001326  68.2882 291.8251 15.08807144 72531","MEAN_MOTION":"15.08807144","NORAD_CAT_ID":"49731","FILE":"3871964","PERIAPSIS":"538.928","INCLINATION":"53.2153","CLASSIFICATION_TYPE":"U","TIME_SYSTEM":"UTC","TLE_LINE1":"1 49731U 21115H   23085.92154279  .00011288  00000-0  72684-3 0  9991","OBJECT_NAME":"STARLINK-3228","ARG_OF_PERICENTER":"68.2882","OBJECT_TYPE":"PAYLOAD","MEAN_ELEMENT_THEORY":"SGP4","PERIOD":"95.440","EPHEMERIS_TYPE":"0","CENTER_NAME":"EARTH","MEAN_MOTION_DOT":"0.00011288","OBJECT_ID":"2021-115H","EPOCH":"2023-03-26T22:07:01.297056","DECAY_DATE":null,"SITE":"AFETR","MEAN_ANOMALY":"291.8251","RCS_SIZE":"LARGE","GP_ID":"228917647","REV_AT_EPOCH":"7253"},{"EPHEMERIS_TYPE":"0","CENTER_NAME":"EARTH","MEAN_ELEMENT_THEORY":"SGP4","PERIOD":"95.437","OBJECT_ID":"2021-115J","MEAN_MOTION_DOT":"0.00017766","RCS_SIZE":"LARGE","EPOCH":"2023-03-26T22:24:16.614432","DECAY_DATE":null,"SITE":"AFETR","MEAN_ANOMALY":"246.9103","REV_AT_EPOCH":"7253","GP_ID":"228916896","ECCENTRICITY":"0.00011930","RA_OF_ASC_NODE":"321.8194","BSTAR":"0.00113120000000","APOAPSIS":"540.541","REF_FRAME":"TEME","SEMIMAJOR_AXIS":"6917.851","MEAN_MOTION_DDOT":"0.0000000000000","COUNTRY_CODE":"US","LAUNCH_DATE":"2021-12-02","TLE_LINE2":"2 49732  53.2161 321.8194 0001193 113.2014 246.9103 15.08849566 72533","ELEMENT_SET_NO":"999","MEAN_MOTION":"15.08849566","FILE":"3871964","PERIAPSIS":"538.891","INCLINATION":"53.2161","NORAD_CAT_ID":"49732","OBJECT_NAME":"STARLINK-3246","TLE_LINE1":"1 49732U 21115J   23085.93352563  .00017766  00000-0  11312-2 0  9996","OBJECT_TYPE":"PAYLOAD","ARG_OF_PERICENTER":"113.2014","CLASSIFICATION_TYPE":"U","TIME_SYSTEM":"UTC"},{"MEAN_MOTION_DOT":"0.00022806","OBJECT_ID":"2021-115K","MEAN_ELEMENT_THEORY":"SGP4","PERIOD":"95.437","CENTER_NAME":"EARTH","EPHEMERIS_TYPE":"0","GP_ID":"228917146","REV_AT_EPOCH":"7253","DECAY_DATE":null,"EPOCH":"2023-03-26T22:17:35.267424","MEAN_ANOMALY":"278.5609","SITE":"AFETR","RCS_SIZE":"LARGE","LAUNCH_DATE":"2021-12-02","MEAN_MOTION_DDOT":"0.0000000000000","COUNTRY_CODE":"US","TLE_LINE2":"2 49733  53.2161 321.8668 0001296  81.5530 278.5609 15.08846956 72536","MEAN_MOTION":"15.08846956","ELEMENT_SET_NO":"999","APOAPSIS":"540.621","REF_FRAME":"TEME","SEMIMAJOR_AXIS":"6917.859","RA_OF_ASC_NODE":"321.8668","ECCENTRICITY":"0.00012960","BSTAR":"0.00144610000000","TIME_SYSTEM":"UTC","CLASSIFICATION_TYPE":"U","OBJECT_NAME":"STARLINK-3252","TLE_LINE1":"1 49733U 21115K   23085.92888041  .00022806  00000-0  14461-2 0  9990","OBJECT_TYPE":"PAYLOAD","ARG_OF_PERICENTER":"81.5530","NORAD_CAT_ID":"49733","FILE":"3871964","PERIAPSIS":"538.828","INCLINATION":"53.2161"},{"ARG_OF_PERICENTER":"99.1759","OBJECT_TYPE":"PAYLOAD","OBJECT_NAME":"STARLINK-3238","TLE_LINE1":"1 49734U 21115L   23085.94820741 -.00005703  00000-0 -34067-3 0  9990","CLASSIFICATION_TYPE":"U","TIME_SYSTEM":"UTC","INCLINATION":"53.2167","FILE":"3871964","PERIAPSIS":"538.989","NORAD_CAT_ID":"49734","MEAN_MOTION":"15.08822269","TLE_LINE2":"2 49734  53.2167 311.8069 0001172  99.1759 260.9366 15.08822269 72680","ELEMENT_SET_NO":"999","LAUNCH_DATE":"2021-12-02","MEAN_MOTION_DDOT":"0.0000000000000","COUNTRY_CODE":"US","BSTAR":"-0.00034067000000","RA_OF_ASC_NODE":"311.8069","ECCENTRICITY":"0.00011720","REF_FRAME":"TEME","SEMIMAJOR_AXIS":"6917.935","APOAPSIS":"540.610","REV_AT_EPOCH":"7268","GP_ID":"228917397","RCS_SIZE":"LARGE","SITE":"AFETR","MEAN_ANOMALY":"260.9366","DECAY_DATE":null,"EPOCH":"2023-03-26T22:45:25.120224","OBJECT_ID":"2021-115L","MEAN_MOTION_DOT":"-0.00005703","CENTER_NAME":"EARTH","EPHEMERIS_TYPE":"0","PERIOD":"95.439","MEAN_ELEMENT_THEORY":"SGP4"},{"CLASSIFICATION_TYPE":"U","TIME_SYSTEM":"UTC","OBJECT_TYPE":"PAYLOAD","ARG_OF_PERICENTER":"100.6710","OBJECT_NAME":"STARLINK-3113","TLE_LINE1":"1 49735U 21115M   23085.92984374  .00009518  00000-0  61559-3 0  9994","NORAD_CAT_ID":"49735","INCLINATION":"53.2153","FILE":"3871964","PERIAPSIS":"538.871","TLE_LINE2":"2 49735  53.2153 321.8358 0001337 100.6710 259.4432 15.08823590 72535","ELEMENT_SET_NO":"999","MEAN_MOTION":"15.08823590","LAUNCH_DATE":"2021-12-02","COUNTRY_CODE":"US","MEAN_MOTION_DDOT":"0.0000000000000","REF_FRAME":"TEME","SEMIMAJOR_AXIS":"6917.931","APOAPSIS":"540.720","BSTAR":"0.00061559000000","RA_OF_ASC_NODE":"321.8358","ECCENTRICITY":"0.00013370","GP_ID":"228918148","REV_AT_EPOCH":"7253","SITE":"AFETR","MEAN_ANOMALY":"259.4432","DECAY_DATE":null,"EPOCH":"2023-03-26T22:18:58.499136","RCS_SIZE":"LARGE","MEAN_MOTION_DOT":"0.00009518","OBJECT_ID":"2021-115M","PERIOD":"95.439","MEAN_ELEMENT_THEORY":"SGP4","CENTER_NAME":"EARTH","EPHEMERIS_TYPE":"0"}];
